0 YAOGAN 16A
1 39011U 12066A   13282.47005711 -.00000051  00000-0  66557-4 0  4669
2 39011 063.3848 336.0985 0029032 352.9091 007.1517 13.45083971 42814
0 YAOGAN 16A
1 39011U 12066A   13283.51089256  .00000047  00000-0  10000-3 0  4699
2 39011 063.3839 333.4191 0029157 353.7817 006.3319 13.45083850 42959
0 YAOGAN 16A
1 39011U 12066A   13283.73391719 -.00000040  00000-0  84278-4 0  4708
2 39011 063.3845 332.8521 0029165 352.9214 007.1396 13.45084194 42986
0 YAOGAN 16A
1 39011U 12066A   13284.32867463 -.00000037  00000-0  89734-4 0  4717
2 39011 063.3845 331.3245 0029172 352.9316 007.1293 13.45084303 43062
0 YAOGAN 16A
1 39011U 12066A   13284.47736407 -.00000032  00000-0  98051-4 0  4724
2 39011 063.3845 330.9426 0029166 352.8966 007.1651 13.45084380 43086
0 YAOGAN 16A
1 39011U 12066A   13286.11294704 -.00000023  00000-0  11388-3 0  4745
2 39011 063.3844 326.7410 0029296 352.9242 007.1368 13.45084661 43305
0 YAOGAN 16A
1 39011U 12066A   13286.26163637 -.00000028  00000-0  10590-3 0  4751
2 39011 063.3844 326.3590 0029319 352.9345 007.1254 13.45084608 43327
0 YAOGAN 16A
1 39011U 12066A   13287.45115142 -.00000036  00000-0  91715-4 0  4760
2 39011 063.3842 323.3032 0029384 352.9029 007.1569 13.45084635 43480
0 YAOGAN 16A
1 39011U 12066A   13287.74853032 -.00000036  00000-0  91067-4 0  4770
2 39011 063.3842 322.5393 0029410 352.9065 007.1540 13.45084665 43528
0 YAOGAN 16A
1 39011U 12066A   13288.12025372 -.00000036  00000-0  91067-4 0  4782
2 39011 063.3842 321.5848 0029410 352.9086 007.1520 13.45084705 43573
0 YAOGAN 16A
1 39011U 12066A   13289.01239004 -.00000041  00000-0  83777-4 0  4796
2 39011 063.3839 319.2929 0029486 352.9228 007.1384 13.45084741 43695
0 YAOGAN 16A
1 39011U 12066A   13290.20190510 -.00000052  00000-0  64573-4 0  4804
2 39011 063.3839 316.2375 0029590 352.9647 007.0959 13.45084702 43850
0 YAOGAN 16A
1 39011U 12066A   13291.16838573 -.00000048  00000-0  71409-4 0  4810
2 39011 063.3838 313.7550 0029683 352.9528 007.1078 13.45084845 43982
0 YAOGAN 16A
1 39011U 12066A   13292.06052155 -.00000045  00000-0  76240-4 0  4820
2 39011 063.3836 311.4629 0029798 352.9529 007.1072 13.45084972 44100
0 YAOGAN 16A
1 39011U 12066A   13292.20921090 -.00000050  00000-0  67333-4 0  4839
2 39011 063.3836 311.0809 0029817 352.9706 007.0890 13.45084918 44124
0 YAOGAN 16A
1 39011U 12066A   13292.95265746 -.00000052  00000-0  64400-4 0  4845
2 39011 063.3827 309.1678 0030277 352.8721 007.1861 13.45085120 44220
0 YAOGAN 16A
1 39011U 12066A   13293.17569159 -.00000043  00000-0  80377-4 0  4857
2 39011 063.3833 308.5979 0029865 352.9601 007.1010 13.45085078 44254
0 YAOGAN 16A
1 39011U 12066A   13294.43955041 -.00000035  00000-0  92552-4 0  4866
2 39011 063.3830 305.3516 0029936 352.9680 007.0923 13.45085261 44424
0 YAOGAN 16A
1 39011U 12066A   13295.25734159 -.00000037  00000-0  90071-4 0  4879
2 39011 063.3830 303.2501 0030015 353.0066 007.0542 13.45085332 44533
